OBJECT_NAME,OBJECT_ID,EPOCH,MEAN_MOTION,ECCENTRICITY,INCLINATION,RA_OF_ASC_NODE,ARG_OF_PERICENTER,MEAN_ANOMALY,EPHEMERIS_TYPE,CLASSIFICATION_TYPE,NORAD_CAT_ID,ELEMENT_SET_NO,REV_AT_EPOCH,BSTAR,MEAN_MOTION_DOT,MEAN_MOTION_DDOT
STARLINK-33544,2024-237Q,2026-07-16T11:08:54.434688,15.27590552,.0001457,42.9998,209.3444,272.9634,87.1051,0,U,62281,999,9088,.27027847E-3,.7185E-4,0
STARLINK-33560,2024-237R,2026-07-16T07:34:43.520736,15.27582040,.00028022,43.0025,209.9446,284.1766,75.8774,0,U,62282,999,9077,.67219888E-3,.18283E-3,0
STARLINK-33547,2024-237S,2026-07-16T00:20:58.411680,15.27589901,.00019514,42.9999,200.7394,277.5033,82.5597,0,U,62283,999,9094,.3060898E-3,.8173E-4,0
STARLINK-33563,2024-237T,2026-07-16T10:52:14.855808,15.27569930,.00015582,42.9991,209.2520,279.2322,80.8354,0,U,62284,999,9088,.51161824E-4,.1146E-4,0
STARLINK-33550,2024-237U,2026-07-16T02:46:40.766304,15.27585303,.00012811,42.9933,211.0146,196.5945,163.4865,0,U,62285,999,9083,.36933168E-3,.9917E-4,0
STARLINK-33564,2024-237V,2026-07-16T07:49:31.604736,15.27583205,.00020943,42.9996,210.0221,276.7073,83.3540,0,U,62286,999,9086,.61116183E-3,.16596E-3,0
STARLINK-33546,2024-237W,2026-07-16T10:46:42.261600,15.27584391,.00012827,42.9998,209.2226,277.6207,82.4499,0,U,62287,999,9079,.40153828E-3,.10805E-3,0
STARLINK-33565,2024-237X,2026-07-16T01:12:34.665408,15.27573610,.00018207,43.0043,200.1489,280.1435,79.9211,0,U,62288,999,9095,.38025333E-3,.10214E-3,0
STARLINK-33549,2024-237Y,2026-07-16T11:03:21.723840,15.27598072,.0001793,42.9994,209.3135,267.4919,92.5727,0,U,62289,999,9088,.21501764E-3,.5662E-4,0
GJZ 01,2024-238A,2026-07-16T13:43:09.922368,13.75224870,.00127694,59.9114,197.7154,278.1843,81.7716,0,U,62290,999,7964,.36640358E-4,-.84E-6,0
GJZ 02,2024-238B,2026-07-16T11:59:44.403072,13.75208414,.00067818,59.9163,162.0654,88.3050,271.8734,0,U,62291,999,8031,.33552527E-4,-.87E-6,0
GJZ 03,2024-238C,2026-07-16T13:42:57.733056,13.75209997,.00212167,59.9115,182.0737,22.0149,338.1765,0,U,62292,999,7993,.804944E-5,-.111E-5,0
GJZ 04,2024-238D,2026-07-16T13:49:23.761344,13.75202009,.0017027,59.9116,182.0998,32.2680,327.9366,0,U,62293,999,7995,-.19965947E-4,-.138E-5,0
GJZ 05,2024-238E,2026-07-16T12:01:57.612864,13.75192609,.00186307,59.9097,182.2480,31.1136,329.0971,0,U,62294,999,7994,-.29919386E-4,-.148E-5,0
STARLINK-32648,2024-239A,2026-07-16T11:12:34.459200,15.34402555,.00010294,53.1589,302.0428,63.5872,296.5236,0,U,62301,999,8929,.62923604E-3,.20945E-3,0
STARLINK-32594,2024-239B,2026-07-16T11:45:58.446720,15.34401743,.00011619,53.1587,311.9772,97.5633,262.5502,0,U,62302,999,8915,.35050508E-3,.11485E-3,0
STARLINK-32621,2024-239C,2026-07-16T11:24:40.318560,15.34405527,.00012916,53.1609,302.0912,65.5058,294.6079,0,U,62303,999,8929,.39979357E-3,.13157E-3,0
STARLINK-32597,2024-239D,2026-07-16T13:13:36.569280,15.34407730,.0001111,53.1610,301.8534,70.0124,290.0999,0,U,62304,999,8930,.34301579E-3,.11233E-3,0
STARLINK-32649,2024-239E,2026-07-16T11:16:30.658656,15.34403370,.00014515,53.1583,314.1304,113.6828,246.4328,0,U,62305,999,8912,.46345418E-3,.15316E-3,0
STARLINK-32633,2024-239F,2026-07-16T07:32:41.378784,15.34401923,.00008084,53.1600,315.2896,84.0959,276.0136,0,U,62306,999,8909,.50148835E-3,.16606E-3,0
STARLINK-32646,2024-239G,2026-07-16T10:45:24.774624,15.34403357,.00010401,53.1594,302.6298,90.7059,269.4063,0,U,62307,999,8928,.40738927E-3,.13414E-3,0
STARLINK-32706,2024-239H,2026-07-16T14:03:01.298016,15.34400311,.00012089,53.1597,314.1395,86.6985,273.4156,0,U,62308,999,8913,.4327204E-3,.14272E-3,0
STARLINK-32678,2024-239J,2026-07-16T14:36:04.345632,15.37778949,.00052965,53.1578,300.7822,327.0509,33.0164,0,U,62309,999,8932,.11096172E-2,.41644E-3,0
STARLINK-32696,2024-239K,2026-07-16T14:11:59.049024,15.34399129,.00011486,53.1604,313.4719,85.9445,274.1688,0,U,62310,999,8914,.35155327E-3,.1152E-3,0
STARLINK-32700,2024-239L,2026-07-16T11:30:43.727328,15.34400916,.0000619,53.1600,302.1181,57.3113,302.7949,0,U,62311,999,8928,.32372727E-3,.10577E-3,0
STARLINK-32698,2024-239M,2026-07-16T11:25:36.826752,15.34426949,.00012216,53.1584,314.1666,95.4269,264.6873,0,U,62312,999,8912,.66899611E-3,.22313E-3,0
STARLINK-32634,2024-239N,2026-07-16T11:33:45.532800,15.34401507,.00007715,53.1606,302.1298,63.8694,296.2388,0,U,62313,999,8929,.3503995E-3,.11481E-3,0
STARLINK-32651,2024-239P,2026-07-16T07:41:46.502304,15.34406155,.00019268,53.1595,315.3251,121.6122,238.5069,0,U,62314,999,8909,.57655433E-3,.19157E-3,0
STARLINK-32627,2024-239Q,2026-07-15T12:53:11.833728,15.34389245,.00007953,53.1600,318.9252,60.5455,299.5627,0,U,62315,999,8897,.80064406E-3,.26762E-3,0
STARLINK-32596,2024-239R,2026-07-16T14:18:02.672064,15.34401768,.00007981,53.1596,313.4962,78.6122,281.4970,0,U,62316,999,8914,.57854737E-3,.19222E-3,0
STARLINK-32519,2024-239S,2026-07-16T11:41:03.244704,15.31711473,.00008812,53.1598,302.1558,57.9322,302.1765,0,U,62317,999,8929,.26799604E-3,.7963E-4,0
STARLINK-32527,2024-239U,2026-07-16T13:21:44.267904,15.31725444,.00020001,53.1591,301.8797,85.1843,274.9387,0,U,62319,999,8930,.55967729E-3,.17056E-3,0
STARLINK-32481,2024-239V,2026-07-16T14:16:05.294208,15.30195908,.00007376,53.1577,302.1166,93.3293,266.7793,0,U,62320,999,8930,.20545831E-3,.573E-4,0
STARLINK-32645,2024-239W,2026-07-16T13:43:54.464160,15.34413100,.00011433,53.1595,301.9798,95.4775,264.6358,0,U,62321,999,8930,.48761142E-3,.16141E-3,0
STARLINK-32654,2024-239X,2026-07-16T11:07:25.198176,15.34402841,.000137,53.1594,314.0922,46.6373,313.4743,0,U,62322,999,8912,.39079489E-3,.12851E-3,0
HULIANWANG DIGUI-01,2024-240A,2026-07-16T14:43:02.858592,13.24411532,.00019792,86.5021,333.3106,105.0744,255.0609,0,U,62323,999,7653,.936754E-5,.19E-6,0
HULIANWANG DIGUI-02,2024-240B,2026-07-16T14:53:47.462208,13.24411486,.0001949,86.5050,333.4755,105.5374,254.5975,0,U,62324,999,7654,.48083049E-4,.35E-6,0
HULIANWANG DIGUI-03,2024-240C,2026-07-16T14:32:08.526336,13.24410115,.00020147,86.5003,333.2103,103.5265,256.6093,0,U,62325,999,7653,-.25343069E-4,.4E-7,0
HULIANWANG DIGUI-04,2024-240D,2026-07-16T14:21:17.280288,13.24410393,.00021396,86.5013,333.2564,103.2876,256.8497,0,U,62326,999,7653,-.40668379E-4,-.3E-7,0
HULIANWANG DIGUI-05,2024-240E,2026-07-16T14:10:24.673440,13.24411092,.00021817,86.5065,333.5454,101.0620,259.0759,0,U,62327,999,7653,-.27244317E-4,.3E-7,0
HULIANWANG DIGUI-06,2024-240F,2026-07-16T13:48:39.446784,13.24408579,.00021217,86.5003,333.1893,107.5642,252.5724,0,U,62328,999,7653,.17700999E-4,.22E-6,0
HULIANWANG DIGUI-07,2024-240G,2026-07-16T13:37:45.276096,13.24411035,.00020305,86.4973,333.0222,105.2405,254.8954,0,U,62329,999,7653,.45003513E-4,.34E-6,0
HULIANWANG DIGUI-08,2024-240H,2026-07-16T13:59:31.728768,13.24411376,.000225,86.5057,333.4945,100.9284,259.2103,0,U,62330,999,7653,.112891E-6,.15E-6,0
HULIANWANG DIGUI-09,2024-240J,2026-07-16T13:26:52.879200,13.24409974,.00019959,86.5022,333.3535,103.6176,256.5181,0,U,62331,999,7652,.60306287E-4,.41E-6,0
HULIANWANG DIGUI-10,2024-240K,2026-07-16T15:04:47.828640,13.24410766,.00020817,86.5052,333.4920,106.1640,253.9723,0,U,62332,999,7653,.62212423E-4,.41E-6,0
PIESAT-2 09,2024-241A,2026-07-16T14:55:26.139648,15.14594705,.00024085,97.5307,144.9868,80.1758,279.9746,0,U,62333,999,8725,.21455598E-3,.3894E-4,0
PIESAT-2 10,2024-241B,2026-07-16T15:22:17.618880,15.14634765,.00019344,97.5348,145.4106,93.4522,266.6931,0,U,62334,999,8726,.22349395E-3,.4064E-4,0
PIESAT-2 11,2024-241C,2026-07-16T14:12:12.588768,15.14412200,.00018062,97.5292,144.8162,108.7611,251.3817,0,U,62335,999,8726,.24540166E-3,.4441E-4,0
PIESAT-2 12,2024-241D,2026-07-16T14:32:46.246848,15.14519620,.00023748,97.5247,144.7593,100.7530,259.3970,0,U,62336,999,8725,.25840418E-3,.4694E-4,0
NAVSTAR 83 (USA 440),2024-242A,2026-07-16T06:14:57.087744,2.00572022,.00179284,54.8354,333.0025,4.3490,357.8288,0,U,62339,999,1184,0,-.1E-5,0
O3B MPOWER F7,2024-244A,2026-07-16T11:01:44.846976,5.00115286,.00059226,0.0658,342.5712,128.5360,248.9521,0,U,62362,999,2798,0,-.25E-6,0
O3B MPOWER F8,2024-244B,2026-07-16T10:14:09.403008,5.00115012,.00057431,0.0146,5.8490,97.7266,256.4843,0,U,62363,999,2233,0,-.25E-6,0
TIANQI-33,2024-245A,2026-07-16T12:16:01.499808,13.99215890,.00066786,44.9816,191.5510,165.9588,194.1431,0,U,62365,999,8046,.8228998E-5,-.117E-5,0
TIANQI-34,2024-245B,2026-07-16T13:35:28.980096,13.99226476,.00039643,44.9783,190.9904,187.3667,172.7108,0,U,62366,999,8044,.18066666E-4,-.102E-5,0
TIANQI-35,2024-245C,2026-07-16T13:09:09.658944,13.99202164,.00085588,44.9829,191.0834,149.4342,210.6991,0,U,62367,999,8045,.14441961E-4,-.108E-5,0
TIANQI-36,2024-245D,2026-07-16T12:40:47.643744,13.99190482,.00072883,44.9826,190.9532,163.4767,196.6304,0,U,62368,999,8045,.5528036E-5,-.121E-5,0
TJS-12,2024-246A,2026-07-16T14:25:38.733600,1.00268721,.00018155,0.6084,302.2719,98.4305,256.6486,0,U,62374,999,585,0,-.242E-5,0
KORSAT-2,2024-247A,2026-07-14T12:34:35.992416,14.98732904,.00024542,45.4106,286.1028,335.0174,25.0585,0,U,62377,999,8566,.14538802E-3,.1548E-4,0
TANSTAAFL-2,2024-247B,2026-07-16T04:58:47.571456,15.30137287,.0000254,44.9881,133.5523,49.6516,310.4390,0,U,62378,999,8740,.13942306E-3,.3842E-4,0
HAWK-11B,2024-247C,2026-07-16T12:58:53.067072,15.30679840,.00027468,45.0151,128.8015,30.2860,329.8183,0,U,62379,999,8750,.15055395E-3,.4246E-4,0
BANDWAGON-2 OBJECT D,2024-247D,2026-07-16T12:15:58.486176,15.31371115,.00027493,44.9950,128.5282,74.8545,285.2644,0,U,62380,999,8749,.15309807E-3,.4422E-4,0
HAWK-11C,2024-247E,2026-07-16T05:08:21.078240,15.30672158,.00037235,45.0039,129.9225,14.9875,345.1119,0,U,62381,999,8745,.14209752E-3,.3989E-4,0
HAWK-11A,2024-247F,2026-07-15T22:52:34.333824,15.30666676,.0003193,44.9931,130.6816,13.4807,346.6162,0,U,62382,999,8741,.14628997E-3,.4116E-4,0
LIZZIESAT-2 (LS-2),2024-247G,2026-07-16T04:07:51.793536,15.30245517,.00017291,44.9911,132.6618,19.7408,340.3543,0,U,62383,999,8741,.14392073E-3,.3989E-4,0
ICEYE-X49,2024-247H,2026-07-16T09:51:11.078496,15.13517281,.00010631,44.9979,201.2947,238.1905,121.8869,0,U,62384,999,8660,.96896746E-4,.1508E-4,0
